{"type":"FeatureCollection","features":[{"type":"Feature","geometry":{"type":"Point","coordinates":[-2.110614,57.17947]},"properties":{"id":"57north-hacklab","uri":"urn:mak:space/57north-hacklab","name":"57North Hacklab","status":"confirmed","geolocationFidelity":"","geolocationNote":"","address":"57North Hacklab, c/o Aberdeen Action on Disability, Suite H, Kettock Lodge, Innovation Park, Campus Two, Bridge of Don, Aberdeen AB22 8GU","city":"","country":"","website":"https://57north.org.uk/","endpoint_url":"","specialties":[],"open_now":false,"source":"self-registered","opening_hours":"","description":"","logo":"https://57north.org.uk/wiki_logo.png","contact":{"irc":"irc://irc.libera.chat/#57N","issue_mail":"contact@57north.org.uk","ml":"57north-discuss@lists.57north.org.uk","phone":"+443304450576","phone_de":"+49221569191057","phone_gb_local":"+441224900457","sip":"sip:1057@hg.eventphone.de","twitter":"@57NorthHacklab"},"last_updated":"2026-05-05T17:02:50.138058Z","subset":"mom:required","next_unlock":"Add schema:openingHours to unlock the full detail card","founded":"","capacity":0,"network_memberships":[],"open_for_hosting":false,"last_fetched":""}},{"type":"Feature","geometry":{"type":"Point","coordinates":[5.145344,52.213528]},"properties":{"id":"awesomespace","uri":"urn:mak:space/awesomespace","name":"AwesomeSpace","status":"confirmed","geolocationFidelity":"","geolocationNote":"","address":"Franciscusweg 18, 1216 SK, Hilversum, The Netherlands","city":"","country":"","website":"https://awesomespace.nl","endpoint_url":"","specialties":[],"open_now":false,"source":"self-registered","opening_hours":"","description":"","logo":"https://state.awesomespace.nl/logo.png","contact":{"email":"info@awesomeretro.org","twitter":"@awesomespaceNL","facebook":"https://fb.com/awesomespaceNL"},"last_updated":"2026-05-05T17:02:51.522199Z","subset":"mom:required","next_unlock":"Add schema:openingHours to unlock the full detail card","founded":"","capacity":0,"network_memberships":[],"open_for_hosting":false,"last_fetched":""}},{"type":"Feature","geometry":{"type":"Point","coordinates":[8.54924,47.37861]},"properties":{"id":"bastli","uri":"urn:mak:space/bastli","name":"Bastli","status":"confirmed","geolocationFidelity":"","geolocationNote":"","address":"AMIV Bastli, CAB E38, Universit\u00e4tstrasse 6, 8006 Z\u00fcrich, Switzerland","city":"","country":"","website":"https://bastli.ethz.ch/","endpoint_url":"","specialties":[],"open_now":false,"source":"self-registered","opening_hours":"","description":"","logo":"https://bastli.ethz.ch/favicon.svg","contact":{"phone":"+41 44 632 49 41","email":"info@bastli.ethz.ch"},"last_updated":"2026-05-05T17:02:51.177985Z","subset":"mom:required","next_unlock":"Add schema:openingHours to unlock the full detail card","founded":"","capacity":0,"network_memberships":[],"open_for_hosting":false,"last_fetched":""}},{"type":"Feature","geometry":{"type":"Point","coordinates":[8.8339,47.2251]},"properties":{"id":"coredump","uri":"urn:mak:space/coredump","name":"coredump","status":"confirmed","geolocationFidelity":"","geolocationNote":"","address":"Lenzikon 32B, 8732 Neuhaus, Switzerland","city":"","country":"","website":"https://www.coredump.ch/","endpoint_url":"","specialties":[],"open_now":false,"source":"self-registered","opening_hours":"","description":"","logo":"https://www.coredump.ch/wp-content/uploads/2016/11/logo.png","contact":{"phone":"+41 55 508 14 13","email":"vorstand@coredump.ch","mastodon":"@coredump@chaos.social"},"last_updated":"2026-05-05T17:02:50.505485Z","subset":"mom:required","next_unlock":"Add schema:openingHours to unlock the full detail card","founded":"","capacity":0,"network_memberships":[],"open_for_hosting":false,"last_fetched":""}},{"type":"Feature","geometry":{"type":"Point","coordinates":[5.4494473,51.4842127]},"properties":{"id":"hackalot","uri":"urn:mak:space/hackalot","name":"Hackalot","status":"confirmed","geolocationFidelity":"","geolocationNote":"","address":"Fransebaan 93, 5627 JP Eindhoven, The Netherlands","city":"","country":"","website":"https://hackalot.nl/","endpoint_url":"","specialties":[],"open_now":false,"source":"self-registered","opening_hours":"","description":"","logo":"https://hackalot.nl/state/logo.png","contact":{"irc":"ircs://irc.libera.chat:6697/hackalot","twitter":"@hackalotNL","email":"bestuur@hackalot.nl","ml":"hackalot@lijst.hackalot.nl","mastodon":"@hackalot@hsnl.social"},"last_updated":"2026-05-05T16:28:17.683981Z","subset":"mom:required","next_unlock":"Add schema:openingHours to unlock the full detail card","founded":"","capacity":0,"network_memberships":[],"open_for_hosting":false,"last_fetched":""}},{"type":"Feature","geometry":{"type":"Point","coordinates":[4.378383440647201,50.83302923867064]},"properties":{"id":"openfab","uri":"urn:mak:space/openfab","name":"OpenFab","status":"confirmed","geolocationFidelity":"","geolocationNote":"","address":"158, Rue Gray, 1050 Brussels, Belgium","city":"","country":"","website":"https://openfab.be","endpoint_url":"","specialties":["3D printing","Electronics","Laser cutting","Textile","Woodworking"],"open_now":false,"source":"self-registered","opening_hours":"","description":"","logo":"https://openfab.be/logoOnly100.png","contact":{"email":"contact@openfab.be","facebook":"https://www.facebook.com/OpenFab/","github":"https://github.com/openfab-lab","discord":"https://discord.gg/wGs7XWEvn7"},"last_updated":"2026-05-05T16:28:19.004929Z","subset":"mom:required","next_unlock":"Add schema:openingHours to unlock the full detail card","founded":"","capacity":0,"network_memberships":[],"open_for_hosting":false,"last_fetched":""}}]}